{
  "type": "FeatureCollection",
  "features": [
    {
      "type": "Feature",
      "properties": {
        "norad_id": 66052,
        "name": "HRC MONOBLOCK CAMERA",
        "group": "stations",
        "lat": 33.32989288123124,
        "lon": -52.26571336604112,
        "alt_km": 399.2121064303219,
        "timestamp": "2025-12-09T04:51:46.308119+00:00",
        "meta_object_name": "HRC MONOBLOCK CAMERA",
        "meta_object_id": "1998-067XR",
        "meta_epoch": "2025-12-08T19:01:14.871936",
        "meta_mean_motion": 15.53732903,
        "meta_eccentricity": 0.0003872,
        "meta_inclination": 51.6286,
        "meta_ra_of_asc_node": 161.1826,
        "meta_arg_of_pericenter": 167.7152,
        "meta_mean_anomaly": 192.3934,
        "meta_ephemeris_type": 0,
        "meta_classification_type": "U",
        "meta_norad_cat_id": 66052,
        "meta_element_set_no": 999,
        "meta_rev_at_epoch": 822,
        "meta_bstar": 0.00066164,
        "meta_mean_motion_dot": 0.00042937,
        "meta_mean_motion_ddot": 0,
        "tle_line1": "1 66052U 98067XR  25342.79253324  .00042937  00000+0  66164-3 0  9990",
        "tle_line2": "2 66052  51.6286 161.1826 0003872 167.7152 192.3934 15.53732903  8224"
      },
      "geometry": {
        "type": "Point",
        "coordinates": [
          -52.26571336604112,
          33.32989288123124
        ]
      }
    },
    {
      "type": "Feature",
      "properties": {
        "norad_id": 66174,
        "name": "HTV-X1",
        "group": "stations",
        "lat": 51.35680577430866,
        "lon": -117.72501698082972,
        "alt_km": 413.0091243272145,
        "timestamp": "2025-12-09T04:51:46.308129+00:00",
        "meta_object_name": "HTV-X1",
        "meta_object_id": "2025-241A",
        "meta_epoch": "2025-12-08T13:01:02.621280",
        "meta_mean_motion": 15.49420853,
        "meta_eccentricity": 0.00033936,
        "meta_inclination": 51.6307,
        "meta_ra_of_asc_node": 163.2617,
        "meta_arg_of_pericenter": 220.7658,
        "meta_mean_anomaly": 139.3077,
        "meta_ephemeris_type": 0,
        "meta_classification_type": "U",
        "meta_norad_cat_id": 66174,
        "meta_element_set_no": 999,
        "meta_rev_at_epoch": 51,
        "meta_bstar": 0.00023027995,
        "meta_mean_motion_dot": 0.00012445,
        "meta_mean_motion_ddot": 0,
        "tle_line1": "1 66174U 25241A   25342.54239145  .00012445  00000+0  23028-3 0  9990",
        "tle_line2": "2 66174  51.6307 163.2617 0003393 220.7658 139.3077 15.49420853   519"
      },
      "geometry": {
        "type": "Point",
        "coordinates": [
          -117.72501698082972,
          51.35680577430866
        ]
      }
    },
    {
      "type": "Feature",
      "properties": {
        "norad_id": 66515,
        "name": "SZ-21 MODULE",
        "group": "stations",
        "lat": -38.7644272189785,
        "lon": -27.750328066740558,
        "alt_km": 381.3773313102547,
        "timestamp": "2025-12-09T04:51:46.308139+00:00",
        "meta_object_name": "SZ-21 MODULE",
        "meta_object_id": "2025-246C",
        "meta_epoch": "2025-12-08T12:17:19.006656",
        "meta_mean_motion": 15.62178331,
        "meta_eccentricity": 0.00062383,
        "meta_inclination": 41.4773,
        "meta_ra_of_asc_node": 41.8306,
        "meta_arg_of_pericenter": 236.9164,
        "meta_mean_anomaly": 123.1077,
        "meta_ephemeris_type": 0,
        "meta_classification_type": "U",
        "meta_norad_cat_id": 66515,
        "meta_element_set_no": 999,
        "meta_rev_at_epoch": 378,
        "meta_bstar": 0.00033876447,
        "meta_mean_motion_dot": 0.00030446,
        "meta_mean_motion_ddot": 0,
        "tle_line1": "1 66515U 25246C   25342.51202554  .00030446  00000+0  33876-3 0  9998",
        "tle_line2": "2 66515  41.4773  41.8306 0006238 236.9164 123.1077 15.62178331  3789"
      },
      "geometry": {
        "type": "Point",
        "coordinates": [
          -27.750328066740558,
          -38.7644272189785
        ]
      }
    },
    {
      "type": "Feature",
      "properties": {
        "norad_id": 66645,
        "name": "SHENZHOU-22",
        "group": "stations",
        "lat": 36.027284962249624,
        "lon": 93.61826352731384,
        "alt_km": 381.810145955249,
        "timestamp": "2025-12-09T04:51:46.308149+00:00",
        "meta_object_name": "SHENZHOU-22",
        "meta_object_id": "2025-272A",
        "meta_epoch": "2025-12-08T14:45:28.776096",
        "meta_mean_motion": 15.58905517,
        "meta_eccentricity": 0.00091311,
        "meta_inclination": 41.4682,
        "meta_ra_of_asc_node": 41.7451,
        "meta_arg_of_pericenter": 357.4459,
        "meta_mean_anomaly": 2.6332,
        "meta_ephemeris_type": 0,
        "meta_classification_type": "U",
        "meta_norad_cat_id": 66645,
        "meta_element_set_no": 999,
        "meta_rev_at_epoch": 26300,
        "meta_bstar": 0.0003572809,
        "meta_mean_motion_dot": 0.0002832,
        "meta_mean_motion_ddot": 0,
        "tle_line1": "1 66645U 25272A   25342.61491639  .00028320  00000+0  35728-3 0  9992",
        "tle_line2": "2 66645  41.4682  41.7451 0009131 357.4459   2.6332 15.58905517263000"
      },
      "geometry": {
        "type": "Point",
        "coordinates": [
          93.61826352731384,
          36.027284962249624
        ]
      }
    },
    {
      "type": "Feature",
      "properties": {
        "norad_id": 66664,
        "name": "SOYUZ-MS 28",
        "group": "stations",
        "lat": 51.35680521849799,
        "lon": -117.72502539348439,
        "alt_km": 413.00962926549437,
        "timestamp": "2025-12-09T04:51:46.308166+00:00",
        "meta_object_name": "SOYUZ-MS 28",
        "meta_object_id": "2025-275A",
        "meta_epoch": "2025-12-08T13:01:02.621280",
        "meta_mean_motion": 15.49420853,
        "meta_eccentricity": 0.0003394,
        "meta_inclination": 51.6307,
        "meta_ra_of_asc_node": 163.2617,
        "meta_arg_of_pericenter": 220.7658,
        "meta_mean_anomaly": 139.3077,
        "meta_ephemeris_type": 0,
        "meta_classification_type": "U",
        "meta_norad_cat_id": 66664,
        "meta_element_set_no": 999,
        "meta_rev_at_epoch": 179,
        "meta_bstar": 0.00023028,
        "meta_mean_motion_dot": 0.00012445,
        "meta_mean_motion_ddot": 0,
        "tle_line1": "1 66664U 25275A   25342.54239145  .00012445  00000+0  23028-3 0  9991",
        "tle_line2": "2 66664  51.6307 163.2617 0003394 220.7658 139.3077 15.49420853  1795"
      },
      "geometry": {
        "type": "Point",
        "coordinates": [
          -117.72502539348439,
          51.35680521849799
        ]
      }
    },
    {
      "type": "Feature",
      "properties": {
        "norad_id": 66906,
        "name": "1998-067XS",
        "group": "stations",
        "lat": 49.84717330028222,
        "lon": -89.95165474888894,
        "alt_km": 408.71302493699113,
        "timestamp": "2025-12-09T04:51:46.308177+00:00",
        "meta_object_name": "1998-067XS",
        "meta_object_id": "1998-067XS",
        "meta_epoch": "2025-12-08T19:08:19.953024",
        "meta_mean_motion": 15.50265121,
        "meta_eccentricity": 0.0004022,
        "meta_inclination": 51.6298,
        "meta_ra_of_asc_node": 161.9654,
        "meta_arg_of_pericenter": 184.9972,
        "meta_mean_anomaly": 175.0977,
        "meta_ephemeris_type": 0,
        "meta_classification_type": "U",
        "meta_norad_cat_id": 66906,
        "meta_element_set_no": 999,
        "meta_rev_at_epoch": 100,
        "meta_bstar": 0.00055816,
        "meta_mean_motion_dot": 0.00031833,
        "meta_mean_motion_ddot": 0,
        "tle_line1": "1 66906U 98067XS  25342.79745316  .00031833  00000+0  55816-3 0  9990",
        "tle_line2": "2 66906  51.6298 161.9654 0004022 184.9972 175.0977 15.50265121  1005"
      },
      "geometry": {
        "type": "Point",
        "coordinates": [
          -89.95165474888894,
          49.84717330028222
        ]
      }
    },
    {
      "type": "Feature",
      "properties": {
        "norad_id": 66907,
        "name": "1998-067XT",
        "group": "stations",
        "lat": 47.78494655925028,
        "lon": -80.90444878960245,
        "alt_km": 408.1538438400812,
        "timestamp": "2025-12-09T04:51:46.308187+00:00",
        "meta_object_name": "1998-067XT",
        "meta_object_id": "1998-067XT",
        "meta_epoch": "2025-12-08T19:06:53.693856",
        "meta_mean_motion": 15.50762002,
        "meta_eccentricity": 0.0004972,
        "meta_inclination": 51.6302,
        "meta_ra_of_asc_node": 161.9586,
        "meta_arg_of_pericenter": 204.3216,
        "meta_mean_anomaly": 155.7539,
        "meta_ephemeris_type": 0,
        "meta_classification_type": "U",
        "meta_norad_cat_id": 66907,
        "meta_element_set_no": 999,
        "meta_rev_at_epoch": 100,
        "meta_bstar": 0.0012614,
        "meta_mean_motion_dot": 0.00074227,
        "meta_mean_motion_ddot": 0,
        "tle_line1": "1 66907U 98067XT  25342.79645479  .00074227  00000+0  12614-2 0  9992",
        "tle_line2": "2 66907  51.6302 161.9586 0004972 204.3216 155.7539 15.50762002  1007"
      },
      "geometry": {
        "type": "Point",
        "coordinates": [
          -80.90444878960245,
          47.78494655925028
        ]
      }
    }
  ]
}